GLOBALSTAR M001         
1 25162U 98008A   24248.75984498 -.00000029  00000+0  51591-3 0  9990
2 25162  52.0029  83.9728 0002058  33.7413  47.7674 12.38193846208357
GLOBALSTAR M004         
1 25163U 98008B   24248.86446373 -.00000060  00000+0  24291-3 0  9990
2 25163  51.9980 204.5881 0003340  20.5626  21.7785 12.63370346225622
GLOBALSTAR M002         
1 25164U 98008C   24249.14261172 -.00000079  00000+0 -44805-4 0  9990
2 25164  51.9980 234.9039 0001522 348.7250  11.3535 11.61503617151018
GLOBALSTAR M003         
1 25165U 98008D   24248.39503763  .00000040  00000+0  13768-2 0  9990
2 25165  51.9903 240.0414 0008169  79.2078  69.3770 12.12033241198560
GLOBALSTAR M014         
1 25306U 98023A   24248.78058392 -.00000062  00000+0  29920-3 0  9993
2 25306  51.9823 165.0362 0000446 155.6775 242.2095 11.65470371157898
GLOBALSTAR M006         
1 25307U 98023B   24249.16217914 -.00000067  00000+0  18322-3 0  9993
2 25307  51.9913 205.8916 0003861 316.2422 163.5353 11.58165492183916
GLOBALSTAR M015         
1 25308U 98023C   24248.51810848 -.00000044  00000+0  66619-3 0  9994
2 25308  51.9817 292.8792 0012396 287.4445 221.0818 11.48849789161240
GLOBALSTAR M008         
1 25309U 98023D   24248.72424986 -.00000049  00000+0  36978-3 0  9992
2 25309  51.9974 305.6761 0002151 293.4249 220.7971 12.36048102202544
